[{"OBJECT_NAME":"STARLINK-11721 [DTC]","OBJECT_ID":"2025-111E","EPOCH":"2026-01-23T22:20:39.430752","MEAN_MOTION":15.7088669,"ECCENTRICITY":0.00012378,"INCLINATION":42.9998,"RA_OF_ASC_NODE":243.2896,"ARG_OF_PERICENTER":349.8778,"MEAN_ANOMALY":10.2064,"EPHEMERIS_TYPE":0,"CLASSIFICATION_TYPE":"U","NORAD_CAT_ID":64127,"ELEMENT_SET_NO":999,"REV_AT_EPOCH":3960,"BSTAR":0.0020815851,"MEAN_MOTION_DOT":0.00276259,"MEAN_MOTION_DDOT":0},{"OBJECT_NAME":"STARLINK-11722 [DTC]","OBJECT_ID":"2025-111F","EPOCH":"2026-01-23T21:19:39.756576","MEAN_MOTION":15.7092046,"ECCENTRICITY":0.00010772,"INCLINATION":42.9998,"RA_OF_ASC_NODE":243.843,"ARG_OF_PERICENTER":176.4439,"MEAN_ANOMALY":183.6437,"EPHEMERIS_TYPE":0,"CLASSIFICATION_TYPE":"U","NORAD_CAT_ID":64128,"ELEMENT_SET_NO":999,"REV_AT_EPOCH":3954,"BSTAR":0.0024288696,"MEAN_MOTION_DOT":0.00324801,"MEAN_MOTION_DDOT":0},{"OBJECT_NAME":"STARLINK-11679 [DTC]","OBJECT_ID":"2025-111G","EPOCH":"2026-01-23T14:50:29.464512","MEAN_MOTION":15.71026852,"ECCENTRICITY":0.0003746,"INCLINATION":42.9995,"RA_OF_ASC_NODE":245.2481,"ARG_OF_PERICENTER":262.7585,"MEAN_ANOMALY":97.2857,"EPHEMERIS_TYPE":0,"CLASSIFICATION_TYPE":"U","NORAD_CAT_ID":64129,"ELEMENT_SET_NO":999,"REV_AT_EPOCH":3955,"BSTAR":0.0026399181,"MEAN_MOTION_DOT":0.00356019,"MEAN_MOTION_DDOT":0},{"OBJECT_NAME":"STARLINK-11735 [DTC]","OBJECT_ID":"2025-111H","EPOCH":"2026-01-23T22:58:51.731616","MEAN_MOTION":15.70864786,"ECCENTRICITY":0.00031607,"INCLINATION":43.0024,"RA_OF_ASC_NODE":243.5035,"ARG_OF_PERICENTER":271.6064,"MEAN_ANOMALY":88.4442,"EPHEMERIS_TYPE":0,"CLASSIFICATION_TYPE":"U","NORAD_CAT_ID":64130,"ELEMENT_SET_NO":999,"REV_AT_EPOCH":3945,"BSTAR":0.0020637232,"MEAN_MOTION_DOT":0.00273561,"MEAN_MOTION_DDOT":0},{"OBJECT_NAME":"STARLINK-11720 [DTC]","OBJECT_ID":"2025-111J","EPOCH":"2026-01-23T14:58:08.210496","MEAN_MOTION":15.70902874,"ECCENTRICITY":0.00022542,"INCLINATION":42.9983,"RA_OF_ASC_NODE":245.2889,"ARG_OF_PERICENTER":266.4801,"MEAN_ANOMALY":93.5809,"EPHEMERIS_TYPE":0,"CLASSIFICATION_TYPE":"U","NORAD_CAT_ID":64131,"ELEMENT_SET_NO":999,"REV_AT_EPOCH":3950,"BSTAR":0.0020619342,"MEAN_MOTION_DOT":0.00273752,"MEAN_MOTION_DDOT":0},{"OBJECT_NAME":"STARLINK-11718 [DTC]","OBJECT_ID":"2025-111K","EPOCH":"2026-01-23T15:52:57.629568","MEAN_MOTION":15.70990624,"ECCENTRICITY":0.00030622,"INCLINATION":43.0012,"RA_OF_ASC_NODE":245.5927,"ARG_OF_PERICENTER":272.8975,"MEAN_ANOMALY":87.1542,"EPHEMERIS_TYPE":0,"CLASSIFICATION_TYPE":"U","NORAD_CAT_ID":64132,"ELEMENT_SET_NO":999,"REV_AT_EPOCH":3960,"BSTAR":0.0019910608,"MEAN_MOTION_DOT":0.00265036,"MEAN_MOTION_DDOT":0},{"OBJECT_NAME":"STARLINK-11716 [DTC]","OBJECT_ID":"2025-111L","EPOCH":"2026-01-23T21:50:14.634240","MEAN_MOTION":15.70948858,"ECCENTRICITY":0.00010615,"INCLINATION":42.9995,"RA_OF_ASC_NODE":244.0085,"ARG_OF_PERICENTER":225.9341,"MEAN_ANOMALY":134.144,"EPHEMERIS_TYPE":0,"CLASSIFICATION_TYPE":"U","NORAD_CAT_ID":64133,"ELEMENT_SET_NO":999,"REV_AT_EPOCH":3964,"BSTAR":0.0029768737,"MEAN_MOTION_DOT":0.00402463,"MEAN_MOTION_DDOT":0},{"OBJECT_NAME":"STARLINK-11714 [DTC]","OBJECT_ID":"2025-111M","EPOCH":"2026-01-23T16:06:44.890560","MEAN_MOTION":15.71015797,"ECCENTRICITY":0.00020035,"INCLINATION":42.9982,"RA_OF_ASC_NODE":244.7771,"ARG_OF_PERICENTER":242.1051,"MEAN_ANOMALY":117.9614,"EPHEMERIS_TYPE":0,"CLASSIFICATION_TYPE":"U","NORAD_CAT_ID":64134,"ELEMENT_SET_NO":999,"REV_AT_EPOCH":3956,"BSTAR":0.0020364821,"MEAN_MOTION_DOT":0.00271579,"MEAN_MOTION_DDOT":0},{"OBJECT_NAME":"STARLINK-11712 [DTC]","OBJECT_ID":"2025-111N","EPOCH":"2026-01-23T15:59:17.189088","MEAN_MOTION":15.71138008,"ECCENTRICITY":0.00014568,"INCLINATION":42.998,"RA_OF_ASC_NODE":245.6262,"ARG_OF_PERICENTER":238.1428,"MEAN_ANOMALY":121.9298,"EPHEMERIS_TYPE":0,"CLASSIFICATION_TYPE":"U","NORAD_CAT_ID":64135,"ELEMENT_SET_NO":999,"REV_AT_EPOCH":3955,"BSTAR":0.0021019132,"MEAN_MOTION_DOT":0.00282124,"MEAN_MOTION_DDOT":0},{"OBJECT_NAME":"STARLINK-34254","OBJECT_ID":"2025-111P","EPOCH":"2026-01-23T22:38:31.284096","MEAN_MOTION":15.27612048,"ECCENTRICITY":9.03e-5,"INCLINATION":43.0013,"RA_OF_ASC_NODE":330.2634,"ARG_OF_PERICENTER":274.2963,"MEAN_ANOMALY":85.7785,"EPHEMERIS_TYPE":0,"CLASSIFICATION_TYPE":"U","NORAD_CAT_ID":64136,"ELEMENT_SET_NO":999,"REV_AT_EPOCH":3862,"BSTAR":0.0013527426,"MEAN_MOTION_DOT":0.00037187,"MEAN_MOTION_DDOT":0},{"OBJECT_NAME":"STARLINK-34230","OBJECT_ID":"2025-111Q","EPOCH":"2026-01-24T00:00:02.000160","MEAN_MOTION":15.36047215,"ECCENTRICITY":0.00073284,"INCLINATION":42.999,"RA_OF_ASC_NODE":328.4432,"ARG_OF_PERICENTER":177.5019,"MEAN_ANOMALY":38.3026,"EPHEMERIS_TYPE":0,"CLASSIFICATION_TYPE":"U","NORAD_CAT_ID":64137,"ELEMENT_SET_NO":999,"REV_AT_EPOCH":588,"BSTAR":0.002253323,"MEAN_MOTION_DOT":0.00081495,"MEAN_MOTION_DDOT":0},{"OBJECT_NAME":"STARLINK-34129","OBJECT_ID":"2025-111R","EPOCH":"2026-01-23T20:27:35.043552","MEAN_MOTION":15.2761271,"ECCENTRICITY":2.915e-5,"INCLINATION":42.9998,"RA_OF_ASC_NODE":331.2986,"ARG_OF_PERICENTER":243.8943,"MEAN_ANOMALY":116.1879,"EPHEMERIS_TYPE":0,"CLASSIFICATION_TYPE":"U","NORAD_CAT_ID":64138,"ELEMENT_SET_NO":999,"REV_AT_EPOCH":3865,"BSTAR":0.001561869,"MEAN_MOTION_DOT":0.00043011,"MEAN_MOTION_DDOT":0},{"OBJECT_NAME":"STARLINK-34212","OBJECT_ID":"2025-111S","EPOCH":"2026-01-23T21:19:10.037568","MEAN_MOTION":15.276116,"ECCENTRICITY":9.586e-5,"INCLINATION":43,"RA_OF_ASC_NODE":330.7096,"ARG_OF_PERICENTER":277.9667,"MEAN_ANOMALY":82.1076,"EPHEMERIS_TYPE":0,"CLASSIFICATION_TYPE":"U","NORAD_CAT_ID":64139,"ELEMENT_SET_NO":999,"REV_AT_EPOCH":3861,"BSTAR":0.0015656329,"MEAN_MOTION_DOT":0.00043114,"MEAN_MOTION_DDOT":0},{"OBJECT_NAME":"STARLINK-34149","OBJECT_ID":"2025-111T","EPOCH":"2026-01-23T13:43:11.449920","MEAN_MOTION":15.27622813,"ECCENTRICITY":0.00013823,"INCLINATION":43.0005,"RA_OF_ASC_NODE":332.6338,"ARG_OF_PERICENTER":259.6208,"MEAN_ANOMALY":100.4488,"EPHEMERIS_TYPE":0,"CLASSIFICATION_TYPE":"U","NORAD_CAT_ID":64140,"ELEMENT_SET_NO":999,"REV_AT_EPOCH":3856,"BSTAR":0.0023274719,"MEAN_MOTION_DOT":0.0006443,"MEAN_MOTION_DDOT":0},{"OBJECT_NAME":"STARLINK-34054","OBJECT_ID":"2025-111U","EPOCH":"2026-01-23T19:56:06.858816","MEAN_MOTION":15.27620559,"ECCENTRICITY":8.096e-5,"INCLINATION":43.0011,"RA_OF_ASC_NODE":331.1357,"ARG_OF_PERICENTER":273.665,"MEAN_ANOMALY":86.4109,"EPHEMERIS_TYPE":0,"CLASSIFICATION_TYPE":"U","NORAD_CAT_ID":64141,"ELEMENT_SET_NO":999,"REV_AT_EPOCH":3860,"BSTAR":0.0020319279,"MEAN_MOTION_DOT":0.00056148,"MEAN_MOTION_DDOT":0},{"OBJECT_NAME":"STARLINK-34195","OBJECT_ID":"2025-111V","EPOCH":"2026-01-23T21:13:36.903360","MEAN_MOTION":15.27629546,"ECCENTRICITY":0.00030478,"INCLINATION":43.0023,"RA_OF_ASC_NODE":330.6779,"ARG_OF_PERICENTER":294.1163,"MEAN_ANOMALY":65.937,"EPHEMERIS_TYPE":0,"CLASSIFICATION_TYPE":"U","NORAD_CAT_ID":64142,"ELEMENT_SET_NO":999,"REV_AT_EPOCH":3861,"BSTAR":0.0024442667,"MEAN_MOTION_DOT":0.00067726,"MEAN_MOTION_DDOT":0}]
