STARLINK-11721 [DTC]    
1 64127U 25111E   26023.93101193  .00276259  00000+0  20816-2 0  9999
2 64127  42.9998 243.2896 0001237 349.8778  10.2064 15.70886690 39607
STARLINK-11722 [DTC]    
1 64128U 25111F   26023.88865459  .00324801  00000+0  24289-2 0  9991
2 64128  42.9998 243.8430 0001077 176.4439 183.6437 15.70920460 39544
STARLINK-11679 [DTC]    
1 64129U 25111G   26023.61839658  .00356019  00000+0  26399-2 0  9995
2 64129  42.9995 245.2481 0003746 262.7585  97.2857 15.71026852 39550
STARLINK-11735 [DTC]    
1 64130U 25111H   26023.95754319  .00273561  00000+0  20637-2 0  9993
2 64130  43.0024 243.5035 0003160 271.6064  88.4442 15.70864786 39450
STARLINK-11720 [DTC]    
1 64131U 25111J   26023.62370614  .00273752  00000+0  20619-2 0  9992
2 64131  42.9983 245.2889 0002254 266.4801  93.5809 15.70902874 39504
STARLINK-11718 [DTC]    
1 64132U 25111K   26023.66177812  .00265036  00000+0  19911-2 0  9991
2 64132  43.0012 245.5927 0003062 272.8975  87.1542 15.70990624 39601
STARLINK-11716 [DTC]    
1 64133U 25111L   26023.90989160  .00402463  00000+0  29769-2 0  9995
2 64133  42.9995 244.0085 0001061 225.9341 134.1440 15.70948858 39648
STARLINK-11714 [DTC]    
1 64134U 25111M   26023.67135290  .00271579  00000+0  20365-2 0  9992
2 64134  42.9982 244.7771 0002003 242.1051 117.9614 15.71015797 39561
STARLINK-11712 [DTC]    
1 64135U 25111N   26023.66617117  .00282124  00000+0  21019-2 0  9990
2 64135  42.9980 245.6262 0001456 238.1428 121.9298 15.71138008 39552
STARLINK-34254          
1 64136U 25111P   26023.94341764  .00037187  00000+0  13527-2 0  9996
2 64136  43.0013 330.2634 0000903 274.2963  85.7785 15.27612048 38624
STARLINK-34230          
1 64137U 25111Q   26024.00002315  .00081495  00000+0  22533-2 0  9999
2 64137  42.9990 328.4432 0007328 177.5019  38.3026 15.36047215  5889
STARLINK-34129          
1 64138U 25111R   26023.85248893  .00043011  00000+0  15619-2 0  9994
2 64138  42.9998 331.2986 0000291 243.8943 116.1879 15.27612710 38659
STARLINK-34212          
1 64139U 25111S   26023.88831062  .00043114  00000+0  15656-2 0  9999
2 64139  43.0000 330.7096 0000958 277.9667  82.1076 15.27611600 38617
STARLINK-34149          
1 64140U 25111T   26023.57166030  .00064430  00000+0  23275-2 0  9993
2 64140  43.0005 332.6338 0001382 259.6208 100.4488 15.27622813 38567
STARLINK-34054          
1 64141U 25111U   26023.83063494  .00056148  00000+0  20319-2 0  9996
2 64141  43.0011 331.1357 0000809 273.6650  86.4109 15.27620559 38603
STARLINK-34195          
1 64142U 25111V   26023.88445490  .00067726  00000+0  24443-2 0  9998
2 64142  43.0023 330.6779 0003047 294.1163  65.9370 15.27629546 38611
